GLOBALSTAR M035         
1 25851U 99037A   24238.66273993 -.00000105  00000+0 -15484-2 0  9994
2 25851  51.9996 354.0103 0013396 220.6098 278.6301 11.04531851 63608
GLOBALSTAR M032         
1 25852U 99037B   24238.58127814 -.00000018  00000+0  15698-2 0  9995
2 25852  51.9920 199.7830 0010523  26.9751 333.1594 11.19060145101691
GLOBALSTAR M051         
1 25853U 99037C   24238.69876410 -.00000066  00000+0  15667-3 0  9991
2 25853  51.9818  33.7159 0002001  64.6724 295.4293 11.42198587 98622
GLOBALSTAR M030         
1 25854U 99037D   24238.91341901 -.00000053  00000+0  45905-3 0  9993
2 25854  51.9844 218.0816 0003642 238.9692 121.0768 11.55100235115923
GLOBALSTAR M048         
1 25872U 99041A   24238.63538500 -.00000053  00000+0  45238-3 0  9999
2 25872  51.9392 317.4820 0013226  34.7598 120.4800 11.33848317 91453
GLOBALSTAR M026         
1 25873U 99041B   24238.93891921 -.00000043  00000+0  78600-3 0  9990
2 25873  51.9995 114.4572 0001717  89.1238  39.3144 11.06834152115794
GLOBALSTAR M043         
1 25874U 99041C   24238.75784344 -.00000061  00000+0  20571-3 0  9995
2 25874  51.9416  53.0549 0012926 163.3812 289.8083 11.25687716 89609
GLOBALSTAR M028         
1 25875U 99041D   24239.07103522 -.00000059  00000+0  27005-3 0  9991
2 25875  51.9652 353.0362 0064003 150.1832 210.2699 12.50562226153281
